start=new Date('2023-05-14T00:00:00.000Z').valueOf();
sats=[{"CENTER_NAME":"EARTH","PERIOD":"95.438","FILE":"3906942","RCS_SIZE":"LARGE","ECCENTRICITY":"0.00011340","REF_FRAME":"TEME","MEAN_ANOMALY":"269.4027","SITE":"AFWTR","MEAN_MOTION_DDOT":"0.0000000000000","RA_OF_ASC_NODE":"172.0317","NORAD_CAT_ID":"53964","TIME_SYSTEM":"UTC","TLE_LINE1":"1 53964U 22125A   23133.82001231  .00001037  00000-0  83213-4 0  9990","OBJECT_NAME":"STARLINK-4633","EPHEMERIS_TYPE":"0","PERIAPSIS":"538.978","ARG_OF_PERICENTER":"90.7095","MEAN_ELEMENT_THEORY":"SGP4","INCLINATION":"53.2154","GP_ID":"231752032","APOAPSIS":"540.547","COUNTRY_CODE":"US","OBJECT_ID":"2022-125A","OBJECT_TYPE":"PAYLOAD","BSTAR":"0.00008321300000","MEAN_MOTION":"15.08834537","EPOCH":"2023-05-13T19:40:49.063584","DECAY_DATE":null,"CLASSIFICATION_TYPE":"U","TLE_LINE2":"2 53964  53.2154 172.0317 0001134  90.7095 269.4027 15.08834537 33762","LAUNCH_DATE":"2022-10-05","ELEMENT_SET_NO":"999","REV_AT_EPOCH":"3376","MEAN_MOTION_DOT":"0.00001037","SEMIMAJOR_AXIS":"6917.897"},{"EPOCH":"2023-05-13T10:04:34.126752","MEAN_MOTION":"15.08850206","DECAY_DATE":null,"COUNTRY_CODE":"US","OBJECT_TYPE":"PAYLOAD","BSTAR":"0.00026806000000","OBJECT_ID":"2022-125B","LAUNCH_DATE":"2022-10-05","REV_AT_EPOCH":"3363","ELEMENT_SET_NO":"999","SEMIMAJOR_AXIS":"6917.849","MEAN_MOTION_DOT":"0.00003982","CLASSIFICATION_TYPE":"U","TLE_LINE2":"2 53965  53.2152 173.7977 0001251  93.8027 266.3108 15.08850206 33633","TIME_SYSTEM":"UTC","NORAD_CAT_ID":"53965","OBJECT_NAME":"STARLINK-4578","TLE_LINE1":"1 53965U 22125B   23133.41983943  .00003982  00000-0  26806-3 0  9990","RCS_SIZE":"LARGE","FILE":"3906915","ECCENTRICITY":"0.00012510","CENTER_NAME":"EARTH","PERIOD":"95.437","MEAN_MOTION_DDOT":"0.0000000000000","SITE":"AFWTR","RA_OF_ASC_NODE":"173.7977","MEAN_ANOMALY":"266.3108","REF_FRAME":"TEME","MEAN_ELEMENT_THEORY":"SGP4","GP_ID":"231750059","INCLINATION":"53.2152","APOAPSIS":"540.580","PERIAPSIS":"538.849","EPHEMERIS_TYPE":"0","ARG_OF_PERICENTER":"93.8027"},{"MEAN_MOTION":"15.08834811","EPOCH":"2023-05-13T19:30:12.433824","DECAY_DATE":null,"COUNTRY_CODE":"US","OBJECT_ID":"2022-125C","BSTAR":"0.00004493600000","OBJECT_TYPE":"PAYLOAD","LAUNCH_DATE":"2022-10-05","REV_AT_EPOCH":"3376","ELEMENT_SET_NO":"999","MEAN_MOTION_DOT":"0.00000427","SEMIMAJOR_AXIS":"6917.896","CLASSIFICATION_TYPE":"U","TLE_LINE2":"2 53966  53.2152 171.9840 0001038  95.5329 264.5781 15.08834811 33765","NORAD_CAT_ID":"53966","TIME_SYSTEM":"UTC","TLE_LINE1":"1 53966U 22125C   23133.81264391  .00000427  00000-0  44936-4 0  9990","OBJECT_NAME":"STARLINK-4635","PERIOD":"95.438","CENTER_NAME":"EARTH","RCS_SIZE":"LARGE","FILE":"3906942","ECCENTRICITY":"0.00010380","MEAN_ANOMALY":"264.5781","REF_FRAME":"TEME","MEAN_MOTION_DDOT":"0.0000000000000","SITE":"AFWTR","RA_OF_ASC_NODE":"171.9840","MEAN_ELEMENT_THEORY":"SGP4","INCLINATION":"53.2152","GP_ID":"231751743","APOAPSIS":"540.479","EPHEMERIS_TYPE":"0","PERIAPSIS":"539.043","ARG_OF_PERICENTER":"95.5329"},{"MEAN_MOTION_DOT":"0.00000595","SEMIMAJOR_AXIS":"6917.885","ELEMENT_SET_NO":"999","LAUNCH_DATE":"2022-10-05","REV_AT_EPOCH":"3369","CLASSIFICATION_TYPE":"U","TLE_LINE2":"2 53967  53.2142 171.9601 0001378  86.9839 273.1311 15.08838393 33693","DECAY_DATE":null,"MEAN_MOTION":"15.08838393","EPOCH":"2023-05-13T19:24:53.646336","OBJECT_ID":"2022-125D","BSTAR":"0.00005545100000","OBJECT_TYPE":"PAYLOAD","COUNTRY_CODE":"US","GP_ID":"231779537","INCLINATION":"53.2142","APOAPSIS":"540.704","MEAN_ELEMENT_THEORY":"SGP4","ARG_OF_PERICENTER":"86.9839","PERIAPSIS":"538.797","EPHEMERIS_TYPE":"0","TLE_LINE1":"1 53967U 22125D   23133.80895424  .00000595  00000-0  55451-4 0  9997","OBJECT_NAME":"STARLINK-4634","NORAD_CAT_ID":"53967","TIME_SYSTEM":"UTC","MEAN_ANOMALY":"273.1311","REF_FRAME":"TEME","SITE":"AFWTR","RA_OF_ASC_NODE":"171.9601","MEAN_MOTION_DDOT":"0.0000000000000","CENTER_NAME":"EARTH","PERIOD":"95.438","FILE":"3907148","RCS_SIZE":"LARGE","ECCENTRICITY":"0.00013780"},{"PERIAPSIS":"538.716","EPHEMERIS_TYPE":"0","ARG_OF_PERICENTER":"89.0599","MEAN_ELEMENT_THEORY":"SGP4","APOAPSIS":"540.765","GP_ID":"231751824","INCLINATION":"53.2149","ECCENTRICITY":"0.00014810","FILE":"3906957","RCS_SIZE":"LARGE","CENTER_NAME":"EARTH","PERIOD":"95.437","SITE":"AFWTR","MEAN_MOTION_DDOT":"0.0000000000000","RA_OF_ASC_NODE":"171.8898","REF_FRAME":"TEME","MEAN_ANOMALY":"271.0563","TIME_SYSTEM":"UTC","NORAD_CAT_ID":"53968","OBJECT_NAME":"STARLINK-4629","TLE_LINE1":"1 53968U 22125E   23133.79789925  .00001620  00000-0  11984-3 0  9996","TLE_LINE2":"2 53968  53.2149 171.8898 0001481  89.0599 271.0563 15.08841527 33767","CLASSIFICATION_TYPE":"U","REV_AT_EPOCH":"3376","LAUNCH_DATE":"2022-10-05","ELEMENT_SET_NO":"999","SEMIMAJOR_AXIS":"6917.876","MEAN_MOTION_DOT":"0.00001620","COUNTRY_CODE":"US","OBJECT_TYPE":"PAYLOAD","BSTAR":"0.00011984000000","OBJECT_ID":"2022-125E","EPOCH":"2023-05-13T19:08:58.495200","MEAN_MOTION":"15.08841527","DECAY_DATE":null},{"EPOCH":"2023-05-13T19:19:35.336640","MEAN_MOTION":"15.08840634","DECAY_DATE":null,"COUNTRY_CODE":"US","OBJECT_TYPE":"PAYLOAD","BSTAR":"0.00003192600000","OBJECT_ID":"2022-125F","LAUNCH_DATE":"2022-10-05","ELEMENT_SET_NO":"999","REV_AT_EPOCH":"3369","SEMIMAJOR_AXIS":"6917.878","MEAN_MOTION_DOT":"0.00000220","CLASSIFICATION_TYPE":"U","TLE_LINE2":"2 53969  53.2148 171.9384 0001171 109.9913 250.1205 15.08840634 33697","TIME_SYSTEM":"UTC","NORAD_CAT_ID":"53969","OBJECT_NAME":"STARLINK-4468","TLE_LINE1":"1 53969U 22125F   23133.80527010  .00000220  00000-0  31926-4 0  9998","RCS_SIZE":"LARGE","FILE":"3907148","ECCENTRICITY":"0.00011710","CENTER_NAME":"EARTH","PERIOD":"95.438","SITE":"AFWTR","RA_OF_ASC_NODE":"171.9384","MEAN_MOTION_DDOT":"0.0000000000000","REF_FRAME":"TEME","MEAN_ANOMALY":"250.1205","MEAN_ELEMENT_THEORY":"SGP4","INCLINATION":"53.2148","GP_ID":"231780539","APOAPSIS":"540.554","EPHEMERIS_TYPE":"0","PERIAPSIS":"538.933","ARG_OF_PERICENTER":"109.9913"},{"COUNTRY_CODE":"US","OBJECT_ID":"2022-125G","BSTAR":"0.00020109000000","OBJECT_TYPE":"PAYLOAD","MEAN_MOTION":"15.10476981","EPOCH":"2023-05-13T19:41:51.363168","DECAY_DATE":null,"CLASSIFICATION_TYPE":"U","TLE_LINE2":"2 53970  53.2157 167.0501 0001212  99.0973 261.0157 15.10476981 33765","LAUNCH_DATE":"2022-10-05","REV_AT_EPOCH":"3376","ELEMENT_SET_NO":"999","MEAN_MOTION_DOT":"0.00003057","SEMIMAJOR_AXIS":"6912.881","CENTER_NAME":"EARTH","PERIOD":"95.334","FILE":"3907148","RCS_SIZE":"LARGE","ECCENTRICITY":"0.00012120","REF_FRAME":"TEME","MEAN_ANOMALY":"261.0157","SITE":"AFWTR","RA_OF_ASC_NODE":"167.0501","MEAN_MOTION_DDOT":"0.0000000000000","NORAD_CAT_ID":"53970","TIME_SYSTEM":"UTC","TLE_LINE1":"1 53970U 22125G   23133.82073337  .00003057  00000-0  20109-3 0  9991","OBJECT_NAME":"STARLINK-4567","PERIAPSIS":"533.908","EPHEMERIS_TYPE":"0","ARG_OF_PERICENTER":"99.0973","MEAN_ELEMENT_THEORY":"SGP4","GP_ID":"231781276","INCLINATION":"53.2157","APOAPSIS":"535.584"},{"LAUNCH_DATE":"2022-10-05","ELEMENT_SET_NO":"999","REV_AT_EPOCH":"3376","MEAN_MOTION_DOT":"0.00000151","SEMIMAJOR_AXIS":"6917.897","TLE_LINE2":"2 53971  53.2153 171.9160 0001036  98.6702 261.4408 15.08834443 33767","CLASSIFICATION_TYPE":"U","MEAN_MOTION":"15.08834443","EPOCH":"2023-05-13T19:14:17.261088","DECAY_DATE":null,"COUNTRY_CODE":"US","OBJECT_ID":"2022-125H","BSTAR":"0.00002757200000","OBJECT_TYPE":"PAYLOAD","MEAN_ELEMENT_THEORY":"SGP4","APOAPSIS":"540.479","GP_ID":"231752124","INCLINATION":"53.2153","PERIAPSIS":"539.046","EPHEMERIS_TYPE":"0","ARG_OF_PERICENTER":"98.6702","NORAD_CAT_ID":"53971","TIME_SYSTEM":"UTC","TLE_LINE1":"1 53971U 22125H   23133.80158867  .00000151  00000-0  27572-4 0  9996","OBJECT_NAME":"STARLINK-4639","CENTER_NAME":"EARTH","PERIOD":"95.438","ECCENTRICITY":"0.00010360","FILE":"3906949","RCS_SIZE":"LARGE","MEAN_ANOMALY":"261.4408","REF_FRAME":"TEME","RA_OF_ASC_NODE":"171.9160","SITE":"AFWTR","MEAN_MOTION_DDOT":"0.0000000000000"},{"SITE":"AFWTR","RA_OF_ASC_NODE":"166.3614","MEAN_MOTION_DDOT":"0.0000000000000","MEAN_ANOMALY":"199.2905","REF_FRAME":"TEME","RCS_SIZE":"LARGE","FILE":"3907148","ECCENTRICITY":"0.00010650","PERIOD":"95.440","CENTER_NAME":"EARTH","OBJECT_NAME":"STARLINK-5157","TLE_LINE1":"1 53972U 22125J   23133.91667824  .00043769  00000-0  27541-2 0  9993","TIME_SYSTEM":"UTC","NORAD_CAT_ID":"53972","ARG_OF_PERICENTER":"93.8728","PERIAPSIS":"539.127","EPHEMERIS_TYPE":"0","GP_ID":"231780781","INCLINATION":"53.2155","APOAPSIS":"540.601","MEAN_ELEMENT_THEORY":"SGP4","OBJECT_TYPE":"PAYLOAD","BSTAR":"0.00275410000000","OBJECT_ID":"2022-125J","COUNTRY_CODE":"US","DECAY_DATE":null,"EPOCH":"2023-05-13T22:00:00.999936","MEAN_MOTION":"15.08801250","CLASSIFICATION_TYPE":"U","TLE_LINE2":"2 53972  53.2155 166.3614 0001065  93.8728 199.2905 15.08801250  1304","SEMIMAJOR_AXIS":"6917.999","MEAN_MOTION_DOT":"0.00043769","REV_AT_EPOCH":"130","LAUNCH_DATE":"2022-10-05","ELEMENT_SET_NO":"999"},{"INCLINATION":"53.2147","GP_ID":"231782293","APOAPSIS":"540.578","MEAN_ELEMENT_THEORY":"SGP4","ARG_OF_PERICENTER":"103.7173","EPHEMERIS_TYPE":"0","PERIAPSIS":"538.901","OBJECT_NAME":"STARLINK-5156","TLE_LINE1":"1 53973U 22125K   23133.79421401 -.00000692  00000-0 -25372-4 0  9991","TIME_SYSTEM":"UTC","NORAD_CAT_ID":"53973","MEAN_MOTION_DDOT":"0.0000000000000","SITE":"AFWTR","RA_OF_ASC_NODE":"171.8692","MEAN_ANOMALY":"256.3954","REF_FRAME":"TEME","FILE":"3907148","RCS_SIZE":"LARGE","ECCENTRICITY":"0.00012120","PERIOD":"95.437","CENTER_NAME":"EARTH","SEMIMAJOR_AXIS":"6917.875","MEAN_MOTION_DOT":"-0.00000692","REV_AT_EPOCH":"3369","LAUNCH_DATE":"2022-10-05","ELEMENT_SET_NO":"999","CLASSIFICATION_TYPE":"U","TLE_LINE2":"2 53973  53.2147 171.8692 0001212 103.7173 256.3954 15.08841857 33695","DECAY_DATE":null,"EPOCH":"2023-05-13T19:03:40.090464","MEAN_MOTION":"15.08841857","BSTAR":"-0.00002537200000","OBJECT_TYPE":"PAYLOAD","OBJECT_ID":"2022-125K","COUNTRY_CODE":"US"}];
